NORAD_CAT_ID,OBJECT_NAME,OBJECT_TYPE,EPOCH,MEAN_MOTION,ECCENTRICITY,INCLINATION,RA_OF_ASC_NODE,ARG_OF_PERICENTER,MEAN_ANOMALY,BSTAR,MEAN_MOTION_DOT,MEAN_MOTION_DDOT,TLE_LINE0,TLE_LINE1,TLE_LINE2,SEMIMAJOR_AXIS,PERIOD,APOGEE,PERIGEE,DECAYED
54056.0,STARLINK-5226,PAYLOAD,2023-01-02 10:45:48,15.08854595,0.0002066999999999,53.2159,161.7145,54.1277,305.9907,0.00010262,1.346e-05,0.0,0 STARLINK-5226,1 54056U 22136F   23002.44848144  .00001346  00000-0  10262-3 0  9996,2 54056  53.2159 161.7145 0002067  54.1277 305.9907 15.08854595 11862,6917.8359999999975,95.437,541.131,538.271,0.0
54056.0,STARLINK-5226,PAYLOAD,2023-01-02 17:07:21,15.08848919,0.0002083,53.2163,160.5251,52.5399,307.5782,5.9689e-05,6.62e-06,0.0,0 STARLINK-5226,1 54056U 22136F   23002.71344541  .00000662  00000-0  59689-4 0  9995,2 54056  53.2163 160.5251 0002083  52.5399 307.5782 15.08848919 11421,6917.853,95.437,541.159,538.2769999999998,0.0
54056.0,STARLINK-5226,PAYLOAD,2023-01-02 21:53:31,15.08844066,0.0002066999999999,53.2166,159.6333,49.8596,310.2577,-7.4799e-06,-4.07e-06,0.0,0 STARLINK-5226,1 54056U 22136F   23002.91216917 -.00000407  00000-0 -74799-5 0  9991,2 54056  53.2166 159.6333 0002067  49.8596 310.2577 15.08844066 11932,6917.868,95.437,541.163,538.303,0.0
54056.0,STARLINK-5226,PAYLOAD,2023-01-04 10:27:22,15.0884852,0.0002077,53.2179,152.7924,47.4181,312.6986,3.7549e-05,3.1e-06,0.0,0 STARLINK-5226,1 54056U 22136F   23004.43568245  .00000310  00000-0  37549-4 0  9996,2 54056  53.2179 152.7924 0002077  47.4181 312.6986 15.08848520 12166,6917.854,95.437,541.156,538.283,0.0
54056.0,STARLINK-5226,PAYLOAD,2023-01-04 16:48:55,15.08838478,0.0002065999999999,53.217,151.6036,46.9846,313.1319,5.9308e-05,6.56e-06,0.0,0 STARLINK-5226,1 54056U 22136F   23004.70064773  .00000656  00000-0  59308-4 0  9993,2 54056  53.2170 151.6036 0002066  46.9846 313.1319 15.08838478 11727,6917.885,95.438,541.179,538.321,0.0
54056.0,STARLINK-5226,PAYLOAD,2023-01-05 08:42:45,15.08867299,0.0001984,53.2171,148.6302,41.9687,318.1457,-9.9718e-05,-1.876e-05,0.0,0 STARLINK-5226,1 54056U 22136F   23005.36302930 -.00001876  00000-0 -99718-4 0  9992,2 54056  53.2171 148.6302 0001984  41.9687 318.1457 15.08867299 12302,6917.797,95.436,541.034,538.289,0.0
54056.0,STARLINK-5226,PAYLOAD,2023-01-05 11:53:32,15.08855245,0.0001774999999999,53.2162,148.0358,44.2023,315.9111,0.00017081,2.433e-05,0.0,0 STARLINK-5226,1 54056U 22136F   23005.49551202  .00002433  00000-0  17081-3 0  9994,2 54056  53.2162 148.0358 0001775  44.2023 315.9111 15.08855245 12327,6917.834,95.437,540.927,538.471,0.0
54056.0,STARLINK-5226,PAYLOAD,2023-01-06 08:33:34,15.08834466,0.0002604,53.2165,144.1743,35.3669,324.7495,3.4565e-05,2.62e-06,0.0,0 STARLINK-5226,1 54056U 22136F   23006.35664979  .00000262  00000-0  34565-4 0  9991,2 54056  53.2165 144.1743 0002604  35.3669 324.7495 15.08834466 12453,6917.897,95.438,541.564,537.961,0.0
54056.0,STARLINK-5226,PAYLOAD,2023-01-07 02:02:50,15.08826149,0.000185,53.2161,140.8995,39.7045,320.4083,-9.2627e-05,-1.761e-05,0.0,0 STARLINK-5226,1 54056U 22136F   23007.08530179 -.00001761  00000-0 -92627-4 0  9996,2 54056  53.2161 140.8995 0001850  39.7045 320.4083 15.08826149 12566,6917.923000000002,95.438,541.068,538.508,0.0
54056.0,STARLINK-5226,PAYLOAD,2023-01-07 14:45:54,15.08839932,0.0001694,53.2171,138.5178,31.8124,328.297,8.9088e-05,1.13e-05,0.0,0 STARLINK-5226,1 54056U 22136F   23007.61521009  .00001130  00000-0  89088-4 0  9992,2 54056  53.2171 138.5178 0001694  31.8124 328.2970 15.08839932 12645,6917.880999999999,95.438,540.9169999999998,538.5740000000002,0.0
54056.0,STARLINK-5226,PAYLOAD,2023-01-08 11:25:55,15.08841684,0.0002164,53.2152,134.6567,30.2591,329.8526,0.00047864,7.338e-05,0.0,0 STARLINK-5226,1 54056U 22136F   23008.47633488  .00007338  00000-0  47864-3 0  9993,2 54056  53.2152 134.6567 0002164  30.2591 329.8526 15.08841684 12299,6917.875,95.437,541.237,538.243,0.0
54056.0,STARLINK-5226,PAYLOAD,2023-01-09 01:44:23,15.08846549,0.0002361,53.2152,131.9824,30.5786,329.5343,0.00030154,4.515e-05,0.0,0 STARLINK-5226,1 54056U 22136F   23009.07249364  .00004515  00000-0  30154-3 0  9994,2 54056  53.2152 131.9824 0002361  30.5786 329.5343 15.08846549 12865,6917.86,95.437,541.359,538.092,0.0
54056.0,STARLINK-5226,PAYLOAD,2023-01-09 14:27:28,15.08850019,0.0002125,53.2152,129.6014,36.277,323.8366,0.00020275,2.941e-05,0.0,0 STARLINK-5226,1 54056U 22136F   23009.60240959  .00002941  00000-0  20275-3 0  9998,2 54056  53.2152 129.6014 0002125  36.2770 323.8366 15.08850019 12469,6917.85,95.437,541.185,538.245,0.0
54056.0,STARLINK-5226,PAYLOAD,2023-01-09 17:38:14,15.08848677,0.0002162,53.2152,129.0074,33.9047,326.2083,0.00016894,2.402e-05,0.0,0 STARLINK-5226,1 54056U 22136F   23009.73488945  .00002402  00000-0  16894-3 0  9995,2 54056  53.2152 129.0074 0002162  33.9047 326.2083 15.08848677 12483,6917.854,95.437,541.215,538.2230000000002,0.0
54056.0,STARLINK-5226,PAYLOAD,2023-01-10 03:10:33,15.08845004,0.0002078,53.216,127.2213,37.5985,322.5152,0.00010154,1.328e-05,0.0,0 STARLINK-5226,1 54056U 22136F   23010.13232945  .00001328  00000-0  10154-3 0  9997,2 54056  53.2160 127.2213 0002078  37.5985 322.5152 15.08845004 13022,6917.865,95.437,541.168,538.293,0.0
54056.0,STARLINK-5226,PAYLOAD,2023-01-10 14:18:15,15.08840061,0.0002153,53.2166,125.1399,35.7975,324.3161,-1.3304000000000003e-05,-5e-06,0.0,0 STARLINK-5226,1 54056U 22136F   23010.59601299 -.00000500  00000-0 -13304-4 0  9993,2 54056  53.2166 125.1399 0002153  35.7975 324.3161 15.08840061 12615,6917.88,95.438,541.235,538.256,0.0
54056.0,STARLINK-5226,PAYLOAD,2023-01-11 03:01:19,15.08848048,0.0002131,53.2163,122.7608,36.2509,323.8627,7.743e-05,9.45e-06,0.0,0 STARLINK-5226,1 54056U 22136F   23011.12592460  .00000945  00000-0  77430-4 0  9993,2 54056  53.2163 122.7608 0002131  36.2509 323.8627 15.08848048 13179,6917.856,95.437,541.195,538.247,0.0
54056.0,STARLINK-5226,PAYLOAD,2023-01-11 14:09:01,15.08849381,0.000215,53.2163,120.6789,36.0976,324.0161,8.413600000000001e-05,1.051e-05,0.0,0 STARLINK-5226,1 54056U 22136F   23011.58960152  .00001051  00000-0  84136-4 0  9990,2 54056  53.2163 120.6789 0002150  36.0976 324.0161 15.08849381 12764,6917.852,95.437,541.2040000000002,538.229,0.0
54056.0,STARLINK-5226,PAYLOAD,2023-01-12 15:35:09,15.08935199,0.0002483,53.2164,115.9208,20.2872,339.8218,-0.0014,-0.00022559,0.0,0 STARLINK-5226,1 54056U 22136F   23012.64941838 -.00022559  00000-0 -14000-2 0  9997,2 54056  53.2164 115.9208 0002483  20.2872 339.8218 15.08935199 13409,6917.589,95.432,541.172,537.737,0.0
54056.0,STARLINK-5226,PAYLOAD,2023-01-12 23:32:09,15.08819124,0.0002448,53.2164,114.4347,40.5287,319.5887,-0.00012678,-2.304e-05,0.0,0 STARLINK-5226,1 54056U 22136F   23012.98066841 -.00002304  00000-0 -12678-3 0  9992,2 54056  53.2164 114.4347 0002448  40.5287 319.5887 15.08819124 13454,6917.944,95.439,541.503,538.116,0.0
54056.0,STARLINK-5226,PAYLOAD,2023-01-13 10:39:52,15.08816355,0.0002004,53.2167,112.3535,33.1963,326.9155,-0.00019365,-3.367e-05,0.0,0 STARLINK-5226,1 54056U 22136F   23013.44435507 -.00003367  00000-0 -19365-3 0  9993,2 54056  53.2167 112.3535 0002004  33.1963 326.9155 15.08816355 13048,6917.953,95.439,541.2040000000001,538.431,0.0
54056.0,STARLINK-5226,PAYLOAD,2023-01-13 23:22:56,15.08831215,0.0002032999999999,53.2154,109.976,39.6796,320.4345,4.4364e-06,-2.18e-06,0.0,0 STARLINK-5226,1 54056U 22136F   23013.97426611 -.00000218  00000-0  44364-5 0  9997,2 54056  53.2154 109.9760 0002033  39.6796 320.4345 15.08831215 13607,6917.906999999999,95.438,541.179,538.366,0.0
54056.0,STARLINK-5226,PAYLOAD,2023-01-14 12:06:04,15.08803909,0.0001819,53.2158,107.5958,40.9481,319.1647,-0.00013083,-2.368e-05,0.0,0 STARLINK-5226,1 54056U 22136F   23014.50421422 -.00002368  00000-0 -13083-3 0  9993,2 54056  53.2158 107.5958 0001819  40.9481 319.1647 15.08803909 13688,6917.991,95.44,541.114,538.597,0.0
54056.0,STARLINK-5226,PAYLOAD,2023-01-14 23:13:45,15.08812745,0.0002162,53.2157,105.5127,39.3471,320.7678,0.00015947,2.249e-05,0.0,0 STARLINK-5226,1 54056U 22136F   23014.96789150  .00002249  00000-0  15947-3 0  9995,2 54056  53.2157 105.5127 0002162  39.3471 320.7678 15.08812745 13754,6917.964,95.439,541.3240000000001,538.3330000000001,0.0
54056.0,STARLINK-5226,PAYLOAD,2023-01-15 11:56:48,15.08850094,8.58e-05,53.2147,103.1342,84.4671,275.6419,0.00040875,6.225e-05,0.0,0 STARLINK-5226,1 54056U 22136F   23015.49778174  .00006225  00000-0  40875-3 0  9994,2 54056  53.2147 103.1342 0000858  84.4671 275.6419 15.08850094 13355,6917.85,95.437,540.308,539.121,0.0
54056.0,STARLINK-5226,PAYLOAD,2023-01-15 15:07:34,15.088624,0.000187,53.2174,102.5366,43.8505,316.2635,0.00042073,6.418e-05,0.0,0 STARLINK-5226,1 54056U 22136F   23015.63025641  .00006418  00000-0  42073-3 0  9990,2 54056  53.2174 102.5366 0001870  43.8505 316.2635 15.08862400 13372,6917.812,95.436,540.971,538.383,0.0
54056.0,STARLINK-5226,PAYLOAD,2023-01-15 23:04:31,15.08837426,0.000157,53.2163,101.0523,40.7878,319.3231,0.00042935,6.551e-05,0.0,0 STARLINK-5226,1 54056U 22136F   23015.96147143  .00006551  00000-0  42935-3 0  9993,2 54056  53.2163 101.0523 0001570  40.7878 319.3231 15.08837426 13900,6917.888000000001,95.438,540.839,538.6669999999999,0.0
54056.0,STARLINK-5226,PAYLOAD,2023-01-16 11:47:36,15.08846655,0.0001419999999999,53.2169,98.6724,41.8914,318.2186,0.00043153,6.588e-05,0.0,0 STARLINK-5226,1 54056U 22136F   23016.49139575  .00006588  00000-0  43153-3 0  9995,2 54056  53.2169  98.6724 0001420  41.8914 318.2186 15.08846655 13504,6917.86,95.437,540.707,538.743,0.0
54056.0,STARLINK-5226,PAYLOAD,2023-01-17 11:38:25,15.08833767,0.0001618,53.2176,94.2136,44.2966,315.8156,-0.00015742,-2.792e-05,0.0,0 STARLINK-5226,1 54056U 22136F   23017.48501203 -.00002792  00000-0 -15742-3 0  9994,2 54056  53.2176  94.2136 0001618  44.2966 315.8156 15.08833767 14134,6917.899,95.438,540.884,538.645,0.0
